GLOBALSTAR M023         
1 25621U 99004A   25273.90776603 -.00000064  00000+0  22201-3 0  9995
2 25621  52.0093  91.5173 0010122   5.2373 141.3289 12.62507391229084
GLOBALSTAR M040         
1 25622U 99004B   25273.67131961 -.00000061  00000+0  24098-3 0  9995
2 25622  51.9902  96.5481 0000110 127.4463 309.8599 12.62018561228576
GLOBALSTAR M036         
1 25623U 99004C   25274.08428758 -.00000025  00000+0  84168-3 0  9999
2 25623  51.9987 321.1996 0010577 252.3725 122.1155 11.86610084191559
GLOBALSTAR M038         
1 25624U 99004D   25273.76746764 -.00000075  00000+0  16233-3 0  9997
2 25624  51.9954 127.5115 0000946 289.8652 149.0590 12.32532794215391
GLOBALSTAR M022         
1 25649U 99012A   25274.21104751 -.00000037  00000+0  59878-3 0  9998
2 25649  52.0077   2.6793 0002673  35.8592 342.0115 12.02503012189130
GLOBALSTAR M041         
1 25650U 99012B   25273.62872322 -.00000072  00000+0  17353-3 0  9991
2 25650  52.0003 248.9285 0001276 154.0879 206.0022 11.96682949190904
GLOBALSTAR M046         
1 25651U 99012C   25274.12604324 -.00000133  00000+0 -48476-3 0  9992
2 25651  52.0059 309.1803 0002248 106.5827 287.0901 12.09412052196482
GLOBALSTAR M037         
1 25652U 99012D   25274.03480479 -.00000081  00000+0  12767-3 0  9991
2 25652  51.9994 221.7115 0002627  59.7111  20.0134 12.62451634224641
